{
  "type": "FeatureCollection",
  "features": [
    {
      "type": "Feature",
      "properties": {
        "norad_id": 30493,
        "name": "FENGYUN 1C DEB",
        "group": "fengyun-1c-debris",
        "lat": 41.12550624243914,
        "lon": 161.1581295642887,
        "alt_km": 1040.2149997093693,
        "timestamp": "2025-12-03T17:47:50.994295+00:00",
        "meta_object_name": "FENGYUN 1C DEB",
        "meta_object_id": "1999-025AHF",
        "meta_epoch": "2025-12-02T00:57:25.777152",
        "meta_mean_motion": 13.92807961,
        "meta_eccentricity": 0.01822675,
        "meta_inclination": 98.5711,
        "meta_ra_of_asc_node": 167.1484,
        "meta_arg_of_pericenter": 246.3363,
        "meta_mean_anomaly": 266.961,
        "meta_ephemeris_type": 0,
        "meta_classification_type": "U",
        "meta_norad_cat_id": 30493,
        "meta_element_set_no": 999,
        "meta_rev_at_epoch": 94946,
        "meta_bstar": 0.0034433948,
        "meta_mean_motion_dot": 5.072e-05,
        "meta_mean_motion_ddot": 0,
        "tle_line1": "1 30493U 99025AHF 25336.03988168  .00005072  00000+0  34434-2 0  9999",
        "tle_line2": "2 30493  98.5711 167.1484 0182267 246.3363 266.9610 13.92807961949464"
      },
      "geometry": {
        "type": "Point",
        "coordinates": [
          161.1581295642887,
          41.12550624243914
        ]
      }
    },
    {
      "type": "Feature",
      "properties": {
        "norad_id": 30494,
        "name": "FENGYUN 1C DEB",
        "group": "fengyun-1c-debris",
        "lat": 37.44285503781048,
        "lon": 6.102481467653991,
        "alt_km": 1083.3411220791659,
        "timestamp": "2025-12-03T17:47:50.994305+00:00",
        "meta_object_name": "FENGYUN 1C DEB",
        "meta_object_id": "1999-025AHG",
        "meta_epoch": "2025-12-03T08:54:16.401024",
        "meta_mean_motion": 13.79322889,
        "meta_eccentricity": 0.0185497,
        "meta_inclination": 99.2834,
        "meta_ra_of_asc_node": 12.9341,
        "meta_arg_of_pericenter": 246.9804,
        "meta_mean_anomaly": 111.1691,
        "meta_ephemeris_type": 0,
        "meta_classification_type": "U",
        "meta_norad_cat_id": 30494,
        "meta_element_set_no": 999,
        "meta_rev_at_epoch": 94357,
        "meta_bstar": 0.0020822,
        "meta_mean_motion_dot": 2.387e-05,
        "meta_mean_motion_ddot": 0,
        "tle_line1": "1 30494U 99025AHG 25337.37102316  .00002387  00000+0  20822-2 0  9993",
        "tle_line2": "2 30494  99.2834  12.9341 0185497 246.9804 111.1691 13.79322889943574"
      },
      "geometry": {
        "type": "Point",
        "coordinates": [
          6.102481467653991,
          37.44285503781048
        ]
      }
    },
    {
      "type": "Feature",
      "properties": {
        "norad_id": 30495,
        "name": "FENGYUN 1C DEB",
        "group": "fengyun-1c-debris",
        "lat": -72.560878462278,
        "lon": -158.37842389375058,
        "alt_km": 881.0747352355847,
        "timestamp": "2025-12-03T17:47:50.994314+00:00",
        "meta_object_name": "FENGYUN 1C DEB",
        "meta_object_id": "1999-025AHH",
        "meta_epoch": "2025-12-02T01:27:58.709952",
        "meta_mean_motion": 12.9432015,
        "meta_eccentricity": 0.05961511,
        "meta_inclination": 102.2618,
        "meta_ra_of_asc_node": 63.5487,
        "meta_arg_of_pericenter": 288.4982,
        "meta_mean_anomaly": 65.2242,
        "meta_ephemeris_type": 0,
        "meta_classification_type": "U",
        "meta_norad_cat_id": 30495,
        "meta_element_set_no": 999,
        "meta_rev_at_epoch": 88535,
        "meta_bstar": 0.0028391498,
        "meta_mean_motion_dot": 1.715e-05,
        "meta_mean_motion_ddot": 0,
        "tle_line1": "1 30495U 99025AHH 25336.06109618  .00001715  00000+0  28391-2 0  9994",
        "tle_line2": "2 30495 102.2618  63.5487 0596151 288.4982  65.2242 12.94320150885351"
      },
      "geometry": {
        "type": "Point",
        "coordinates": [
          -158.37842389375058,
          -72.560878462278
        ]
      }
    },
    {
      "type": "Feature",
      "properties": {
        "norad_id": 30496,
        "name": "FENGYUN 1C DEB",
        "group": "fengyun-1c-debris",
        "lat": 26.459448265103443,
        "lon": 66.93402243702663,
        "alt_km": 503.1887092082634,
        "timestamp": "2025-12-03T17:47:50.994324+00:00",
        "meta_object_name": "FENGYUN 1C DEB",
        "meta_object_id": "1999-025AHJ",
        "meta_epoch": "2025-12-03T04:15:51.086304",
        "meta_mean_motion": 14.94060571,
        "meta_eccentricity": 0.01302555,
        "meta_inclination": 98.7838,
        "meta_ra_of_asc_node": 241.8902,
        "meta_arg_of_pericenter": 128.0071,
        "meta_mean_anomaly": 233.2991,
        "meta_ephemeris_type": 0,
        "meta_classification_type": "U",
        "meta_norad_cat_id": 30496,
        "meta_element_set_no": 999,
        "meta_rev_at_epoch": 1001,
        "meta_bstar": 0.00064001616,
        "meta_mean_motion_dot": 8.01e-05,
        "meta_mean_motion_ddot": 0,
        "tle_line1": "1 30496U 99025AHJ 25337.17767461  .00008010  00000+0  64002-3 0  9999",
        "tle_line2": "2 30496  98.7838 241.8902 0130255 128.0071 233.2991 14.94060571 10016"
      },
      "geometry": {
        "type": "Point",
        "coordinates": [
          66.93402243702663,
          26.459448265103443
        ]
      }
    },
    {
      "type": "Feature",
      "properties": {
        "norad_id": 30498,
        "name": "FENGYUN 1C DEB",
        "group": "fengyun-1c-debris",
        "lat": -63.506670087125606,
        "lon": -170.37001655411325,
        "alt_km": 847.4512889096395,
        "timestamp": "2025-12-03T17:47:50.994335+00:00",
        "meta_object_name": "FENGYUN 1C DEB",
        "meta_object_id": "1999-025AHL",
        "meta_epoch": "2025-12-02T17:19:15.622176",
        "meta_mean_motion": 14.05968462,
        "meta_eccentricity": 0.01050258,
        "meta_inclination": 99.2391,
        "meta_ra_of_asc_node": 27.6499,
        "meta_arg_of_pericenter": 182.8546,
        "meta_mean_anomaly": 301.9014,
        "meta_ephemeris_type": 0,
        "meta_classification_type": "U",
        "meta_norad_cat_id": 30498,
        "meta_element_set_no": 999,
        "meta_rev_at_epoch": 95628,
        "meta_bstar": 0.0021296515,
        "meta_mean_motion_dot": 3.622e-05,
        "meta_mean_motion_ddot": 0,
        "tle_line1": "1 30498U 99025AHL 25336.72170859  .00003622  00000+0  21297-2 0  9992",
        "tle_line2": "2 30498  99.2391  27.6499 0105025 182.8546 301.9014 14.05968462956286"
      },
      "geometry": {
        "type": "Point",
        "coordinates": [
          -170.37001655411325,
          -63.506670087125606
        ]
      }
    },
    {
      "type": "Feature",
      "properties": {
        "norad_id": 30500,
        "name": "FENGYUN 1C DEB",
        "group": "fengyun-1c-debris",
        "lat": -26.251120475400448,
        "lon": -115.5902173018539,
        "alt_km": 793.616722204546,
        "timestamp": "2025-12-03T17:47:50.994345+00:00",
        "meta_object_name": "FENGYUN 1C DEB",
        "meta_object_id": "1999-025AHN",
        "meta_epoch": "2025-12-03T05:10:48.205344",
        "meta_mean_motion": 14.24996995,
        "meta_eccentricity": 0.006593,
        "meta_inclination": 99.0729,
        "meta_ra_of_asc_node": 68.3864,
        "meta_arg_of_pericenter": 143.2676,
        "meta_mean_anomaly": 247.0794,
        "meta_ephemeris_type": 0,
        "meta_classification_type": "U",
        "meta_norad_cat_id": 30500,
        "meta_element_set_no": 999,
        "meta_rev_at_epoch": 96546,
        "meta_bstar": 0.0037417,
        "meta_mean_motion_dot": 8.922e-05,
        "meta_mean_motion_ddot": 0,
        "tle_line1": "1 30500U 99025AHN 25337.21583571  .00008922  00000+0  37417-2 0  9999",
        "tle_line2": "2 30500  99.0729  68.3864 0065930 143.2676 247.0794 14.24996995965464"
      },
      "geometry": {
        "type": "Point",
        "coordinates": [
          -115.5902173018539,
          -26.251120475400448
        ]
      }
    },
    {
      "type": "Feature",
      "properties": {
        "norad_id": 30501,
        "name": "FENGYUN 1C DEB",
        "group": "fengyun-1c-debris",
        "lat": 32.635005497709216,
        "lon": 154.11163068751557,
        "alt_km": 801.8491735677835,
        "timestamp": "2025-12-03T17:47:50.994355+00:00",
        "meta_object_name": "FENGYUN 1C DEB",
        "meta_object_id": "1999-025AHP",
        "meta_epoch": "2025-12-03T11:08:58.771104",
        "meta_mean_motion": 14.25222339,
        "meta_eccentricity": 0.0040593,
        "meta_inclination": 99.0837,
        "meta_ra_of_asc_node": 327.9446,
        "meta_arg_of_pericenter": 230.2055,
        "meta_mean_anomaly": 296.6562,
        "meta_ephemeris_type": 0,
        "meta_classification_type": "U",
        "meta_norad_cat_id": 30501,
        "meta_element_set_no": 999,
        "meta_rev_at_epoch": 96787,
        "meta_bstar": 0.0023931,
        "meta_mean_motion_dot": 5.63e-05,
        "meta_mean_motion_ddot": 0,
        "tle_line1": "1 30501U 99025AHP 25337.46456911  .00005630  00000+0  23931-2 0  9993",
        "tle_line2": "2 30501  99.0837 327.9446 0040593 230.2055 296.6562 14.25222339967876"
      },
      "geometry": {
        "type": "Point",
        "coordinates": [
          154.11163068751557,
          32.635005497709216
        ]
      }
    }
  ]
}